{
  "type": "FeatureCollection",
  "name": "Admin_1_polygons",
  "crs": {
    "type": "name",
    "properties": {
      "name": "urn:ogc:def:crs:OGC:1.3:CRS84"
    }
  },
  "features": [
    {
      "type": "Feature",
      "properties": {
        "Postal": "AB",
        "adm1_code": "CAN-632",
        "iso_3166_2": "CA-AB",
        "name": "Alberta",
        "abbrev": "Alta.",
        "adm0_a3": "CAN",
        "admin": "Canada",
        "centroid": [
          -114.35584173679062,
          55.098440182611604
        ]
      },
      "geometry": {
        "type": "MultiPolygon",
        "coordinates": [
          [
            [
              [
                -109.8373214328584,
                50.271247385299716
              ],
              [
                -109.80754889214296,
                48.9912237940793
              ],
              [
                -113.92514009772646,
                48.99122379495081
              ],
              [
                -115.336885653128,
                50.99634842509256
              ],
              [
                -120.04270417325039,
                53.73195963046309
              ],
              [
                -120.00469564548696,
                55.88378981981593
              ],
              [
                -119.92585043065789,
                60.21337064703544
              ],
              [
                -112.6619926221112,
                60.21181819398972
              ],
              [
                -110.0802172880182,
                60.21126640315447
              ],
              [
                -110.05824574100218,
                59.349405653673166
              ],
              [
                -110.0506708294055,
                59.0505431487027
              ],
              [
                -110.04250649600307,
                58.72743392005624
              ],
              [
                -109.91485924878182,
                53.54230268522003
              ],
              [
                -109.8373214328584,
                50.271247385299716
              ]
            ]
          ]
        ]
      }
    },
    {
      "type": "Feature",
      "properties": {
        "Postal": "BC",
        "adm1_code": "CAN-633",
        "iso_3166_2": "CA-BC",
        "name": "British Columbia",
        "abbrev": "B.C.",
        "adm0_a3": "CAN",
        "admin": "Canada",
        "centroid": [
          -124.55699892736071,
          54.75733451311156
        ]
      },
      "geometry": {
        "type": "MultiPolygon",
        "coordinates": [
          [
            [
              [
                -123.34269265317664,
                48.62636670765375
              ],
              [
                -124.08217841998928,
                48.34855651454306
              ],
              [
                -128.35102807784648,
                50.16627929593167
              ],
              [
                -128.61993199328202,
                50.735982472220584
              ],
              [
                -126.56953963840343,
                50.41727745240441
              ],
              [
                -123.34269265317664,
                48.62636670765375
              ]
            ]
          ],
          [
            [
              [
                -131.11785329252476,
                52.14090565205384
              ],
              [
                -131.6892741125077,
                52.095961478795964
              ],
              [
                -133.5043755410626,
                54.05714575552516
              ],
              [
                -131.72288710161956,
                54.16756854134045
              ],
              [
                -132.05901699654927,
                52.9023154340426
              ],
              [
                -131.11785329252476,
                52.14090565205384
              ]
            ]
          ],
          [
            [
              [
                -119.92585043065786,
                60.213370647035454
              ],
              [
                -120.00469564548693,
                55.88378981981595
              ],
              [
                -120.04270417325039,
                53.73195963046309
              ],
              [
                -115.33688565312802,
                50.996348425092556
              ],
              [
                -113.92514009772646,
                48.991223794950805
              ],
              [
                -116.00872490944144,
                48.991223794950805
              ],
              [
                -117.02514449796452,
                48.991223794950805
              ],
              [
                -118.14077382076835,
                48.991223794950805
              ],
              [
                -122.76847075013252,
                48.991223795822336
              ],
              [
                -127.50478782722253,
                51.13238516911269
              ],
              [
                -129.99200529751354,
                53.8754073037017
              ],
              [
                -130.7450292178782,
                54.693062989211505
              ],
              [
                -129.9383174715715,
                55.82959616881321
              ],
              [
                -131.7321831222975,
                57.066126450310215
              ],
              [
                -135.50054034153757,
                59.616960373102415
              ],
              [
                -137.4004011242732,
                58.915146865266664
              ],
              [
                -138.3059914878282,
                59.24027694564281
              ],
              [
                -141.04668359707847,
                60.21788451659458
              ],
              [
                -137.717533865804,
                60.21717303641582
              ],
              [
                -132.6097767987113,
                60.216081435109125
              ],
              [
                -128.1673712891095,
                60.21513202004469
              ],
              [
                -124.1687612007748,
                60.214277443305534
              ],
              [
                -123.72691101807213,
                60.21418301093662
              ],
              [
                -119.92585043065786,
                60.213370647035454
              ]
            ]
          ]
        ]
      }
    },
    {
      "type": "Feature",
      "properties": {
        "Postal": "MB",
        "adm1_code": "CAN-630",
        "iso_3166_2": "CA-MB",
        "name": "Manitoba",
        "abbrev": "Man.",
        "adm0_a3": "CAN",
        "admin": "Canada",
        "centroid": [
          -97.53755024639179,
          54.84846411437914
        ]
      },
      "geometry": {
        "type": "MultiPolygon",
        "coordinates": [
          [
            [
              [
                -95.40749735265807,
                48.99122379233628
              ],
              [
                -97.28290333767518,
                48.99122379233628
              ],
              [
                -101.34816784311725,
                48.99122379320779
              ],
              [
                -101.84420014275166,
                53.884104337067264
              ],
              [
                -102.02042763170613,
                55.57362801917296
              ],
              [
                -101.9991352558566,
                56.810997135087796
              ],
              [
                -101.99120055916315,
                57.26845642517458
              ],
              [
                -101.98769845770055,
                57.46973168907023
              ],
              [
                -101.9755553930808,
                58.164629206931735
              ],
              [
                -101.9393382115374,
                60.209526471532605
              ],
              [
                -94.73050513691402,
                60.20798571808684
              ],
              [
                -94.76002191494585,
                58.97089508847908
              ],
              [
                -92.95836568152758,
                58.70045684946362
              ],
              [
                -92.52419359563484,
                57.204261983146885
              ],
              [
                -88.92776998233768,
                56.86433808276252
              ],
              [
                -95.04730756304083,
                52.84586383959866
              ],
              [
                -95.29972723349354,
                50.15747297199276
              ],
              [
                -95.40749735265807,
                48.99122379233628
              ]
            ]
          ]
        ]
      }
    },
    {
      "type": "Feature",
      "properties": {
        "Postal": "NB",
        "adm1_code": "CAN-684",
        "iso_3166_2": "CA-NB",
        "name": "New Brunswick",
        "abbrev": "N.B.",
        "adm0_a3": "CAN",
        "admin": "Canada",
        "centroid": [
          -66.37818567885715,
          46.64696627711065
        ]
      },
      "geometry": {
        "type": "MultiPolygon",
        "coordinates": [
          [
            [
              [
                -68.80637694233883,
                47.32060636665927
              ],
              [
                -68.11013794150935,
                47.96419987531907
              ],
              [
                -66.55049523198308,
                48.01997745931028
              ],
              [
                -64.89754526262628,
                47.74026711112107
              ],
              [
                -64.78046181980429,
                46.35405252249612
              ],
              [
                -64.03910178840368,
                46.018776629767764
              ],
              [
                -64.37573481637432,
                45.79140584747838
              ],
              [
                -66.08848469228327,
                45.14921899712842
              ],
              [
                -67.09975809011841,
                45.184138702349784
              ],
              [
                -67.75521138415141,
                45.68169691563105
              ],
              [
                -67.80563086781919,
                47.16345794759042
              ],
              [
                -68.80637694233883,
                47.32060636665927
              ]
            ]
          ]
        ]
      }
    },
    {
      "type": "Feature",
      "properties": {
        "Postal": "NL",
        "adm1_code": "CAN-686",
        "iso_3166_2": "CA-NL",
        "name": "Newfoundland and Labrador",
        "abbrev": "N.L.",
        "adm0_a3": "CAN",
        "admin": "Canada",
        "centroid": [
          -60.88010647322508,
          53.87566718533665
        ]
      },
      "geometry": {
        "type": "MultiPolygon",
        "coordinates": [
          [
            [
              [
                -52.771100913180284,
                48.62675213306221
              ],
              [
                -52.813117148934886,
                46.55784605912271
              ],
              [
                -54.11562049035809,
                46.73395454154437
              ],
              [
                -53.86352306947845,
                47.756587548752925
              ],
              [
                -55.67022125139054,
                46.851230462742976
              ],
              [
                -55.12401017260631,
                47.494387758808735
              ],
              [
                -59.32563385096938,
                47.66924646269243
              ],
              [
                -59.11555266711476,
                48.59784197006559
              ],
              [
                -56.09038361909986,
                51.62539595644214
              ],
              [
                -55.16602640963129,
                51.62539595644214
              ],
              [
                -56.762643407688756,
                49.74909530328861
              ],
              [
                -53.5694094115738,
                49.289864455209496
              ],
              [
                -52.771100913180284,
                48.62675213306221
              ]
            ]
          ],
          [
            [
              [
                -61.27275169677421,
                56.41648019085485
              ],
              [
                -57.266083356784264,
                53.98483067711441
              ],
              [
                -55.85621312549241,
                53.69063126947764
              ],
              [
                -55.60411570461277,
                52.218150583303725
              ],
              [
                -57.14698133083716,
                51.551352229953736
              ],
              [
                -57.14698133083716,
                51.988509575837256
              ],
              [
                -63.65949803287165,
                51.96038498096557
              ],
              [
                -63.91159545375129,
                53.1914881999815
              ],
              [
                -64.62587147936522,
                51.622365259498835
              ],
              [
                -66.51660213532733,
                52.044738573661604
              ],
              [
                -67.65104052865051,
                54.79427633248862
              ],
              [
                -63.49143308604203,
                54.65700538427628
              ],
              [
                -64.47794491398646,
                60.39417999705701
              ],
              [
                -61.27275169677421,
                56.41648019085485
              ]
            ]
          ]
        ]
      }
    },
    {
      "type": "Feature",
      "properties": {
        "Postal": "PE",
        "adm1_code": "CAN-687",
        "iso_3166_2": "CA-PE",
        "name": "Prince Edward Island",
        "abbrev": "P.E.I.",
        "adm0_a3": "CAN",
        "admin": "Canada",
        "centroid": [
          -62.852776377261215,
          46.70142286842807
        ]
      },
      "geometry": {
        "type": "MultiPolygon",
        "coordinates": [
          [
            [
              [
                -64.00531827220343,
                47.20872792570937
              ],
              [
                -63.14818704222896,
                46.43488211968533
              ],
              [
                -61.93811942276893,
                46.50541855607267
              ],
              [
                -62.744831169075624,
                45.940084874232596
              ],
              [
                -64.30783517675086,
                46.364308413088196
              ],
              [
                -64.00531827220343,
                47.20872792570937
              ]
            ]
          ]
        ]
      }
    },
    {
      "type": "Feature",
      "properties": {
        "Postal": "NS",
        "adm1_code": "CAN-685",
        "iso_3166_2": "CA-NS",
        "name": "Nova Scotia",
        "abbrev": "N.S.",
        "adm0_a3": "CAN",
        "admin": "Canada",
        "centroid": [
          -63.73503412925975,
          44.79694736702494
        ]
      },
      "geometry": {
        "type": "MultiPolygon",
        "coordinates": [
          [
            [
              [
                -64.37573481637432,
                45.79140584747838
              ],
              [
                -64.03910178840368,
                46.018776629767764
              ],
              [
                -63.21745781085865,
                45.64621707452164
              ],
              [
                -61.604034318245276,
                45.8235237342579
              ],
              [
                -60.545225151058894,
                46.98792103009618
              ],
              [
                -59.73851340475222,
                45.8589572857521
              ],
              [
                -65.48633459750502,
                43.46458372841667
              ],
              [
                -66.14178789153803,
                44.398619452800375
              ],
              [
                -63.535410080955785,
                45.329818905653816
              ],
              [
                -64.77909068952768,
                45.34167396224504
              ],
              [
                -64.37573481637432,
                45.79140584747838
              ]
            ]
          ]
        ]
      }
    },
    {
      "type": "Feature",
      "properties": {
        "Postal": "NT",
        "adm1_code": "CAN-635",
        "iso_3166_2": "CA-NT",
        "name": "Northwest Territories",
        "abbrev": "N.W.T.",
        "adm0_a3": "CAN",
        "admin": "Canada",
        "centroid": [
          -120.27325619747553,
          64.37475268898142
        ]
      },
      "geometry": {
        "type": "MultiPolygon",
        "coordinates": [
          [
            [
              [
                -128.1004152170401,
                70.57470870901122
              ],
              [
                -125.67752874593386,
                69.48409443230551
              ],
              [
                -124.3684750960889,
                70.15924532777996
              ],
              [
                -124.26549335419128,
                69.34412575429472
              ],
              [
                -122.25016270134857,
                69.85271486294933
              ],
              [
                -120.6684934640171,
                69.63516120200198
              ],
              [
                -120.82538926386782,
                67.98360641996223
              ],
              [
                -114.322426866958,
                66.052393445768
              ],
              [
                -111.25745182285551,
                65.12719343679682
              ],
              [
                -108.04465182836117,
                64.80867865337113
              ],
              [
                -102.61812491903578,
                64.2681346765639
              ],
              [
                -102.01387973071073,
                64.20774566718383
              ],
              [
                -101.96525153863536,
                63.41073764666174
              ],
              [
                -101.92323530161036,
                62.80412343429564
              ],
              [
                -101.92407985724697,
                62.66978011407266
              ],
              [
                -101.9393382115374,
                60.20952647153262
              ],
              [
                -110.0802172880182,
                60.21126640315448
              ],
              [
                -112.66199262211123,
                60.21181819398971
              ],
              [
                -119.92585043065786,
                60.213370647035454
              ],
              [
                -123.72691101807213,
                60.21418301093662
              ],
              [
                -124.1687612007748,
                60.214277443305534
              ],
              [
                -128.96309400584823,
                62.190820988762354
              ],
              [
                -133.92100994557987,
                67.03786963242759
              ],
              [
                -136.56803286418096,
                67.03786963242759
              ],
              [
                -136.46527467881165,
                68.93758750534639
              ],
              [
                -135.16383356628623,
                69.55116657169646
              ],
              [
                -133.68486203139062,
                69.36308031475325
              ],
              [
                -128.1004152170401,
                70.57470870901122
              ]
            ]
          ],
          [
            [
              [
                -114.91331119629163,
                73.37979158868232
              ],
              [
                -114.45953583947052,
                72.56982351676574
              ],
              [
                -112.59401492597748,
                72.89482721815779
              ],
              [
                -110.9301719484259,
                72.51552418310176
              ],
              [
                -109.87136278250998,
                72.94886259365673
              ],
              [
                -109.9297387402336,
                70.03275754035994
              ],
              [
                -117.03092953066437,
                70.0327444660827
              ],
              [
                -112.03940060055045,
                70.39614350128988
              ],
              [
                -118.29141663379215,
                70.70237066438787
              ],
              [
                -115.92170087981025,
                71.36649092233667
              ],
              [
                -119.19896734870477,
                71.641588244705
              ],
              [
                -118.19057766518621,
                72.54267857042734
              ],
              [
                -114.91331119629163,
                73.37979158868232
              ]
            ]
          ],
          [
            [
              [
                -120.3586154844971,
                71.22858544033113
              ],
              [
                -123.23252608023827,
                70.84118233395125
              ],
              [
                -125.95517822370576,
                71.80619049786327
              ],
              [
                -123.8879793742713,
                73.67466174850874
              ],
              [
                -124.7955300891839,
                74.39363830655265
              ],
              [
                -120.20735703095296,
                74.31408771093533
              ],
              [
                -115.51834500665689,
                73.56756740123768
              ],
              [
                -119.9552596113437,
                72.32517898969098
              ],
              [
                -120.3586154844971,
                71.22858544033113
              ]
            ]
          ],
          [
            [
              [
                -109.99823707311252,
                74.70886908762142
              ],
              [
                -114.1570189336527,
                74.3406138842372
              ],
              [
                -112.03940060055045,
                75.13208003416239
              ],
              [
                -117.83764127697106,
                75.15831861766289
              ],
              [
                -115.36708655311278,
                76.53579010466686
              ],
              [
                -109.93335225916401,
                75.6203117933977
              ],
              [
                -109.99823707311252,
                74.70886908762142
              ]
            ]
          ],
          [
            [
              [
                -118.29141663379215,
                76.45850765617985
              ],
              [
                -120.71155187271225,
                75.8892540414914
              ],
              [
                -122.77875072341713,
                76.07086115550747
              ],
              [
                -119.40064528464625,
                77.50761188904559
              ],
              [
                -116.07295933208391,
                77.68520415550567
              ],
              [
                -116.37547623663131,
                76.66441167694828
              ],
              [
                -118.29141663379215,
                76.45850765617985
              ]
            ]
          ],
          [
            [
              [
                -109.66968484529811,
                77.81178502257325
              ],
              [
                -111.88814214827674,
                77.35503742303165
              ],
              [
                -113.55198512455792,
                77.78648688234767
              ],
              [
                -111.03101091703184,
                78.2153312735089
              ],
              [
                -109.66968484529811,
                77.81178502257325
              ]
            ]
          ],
          [
            [
              [
                -109.51842639302438,
                78.51648281602648
              ],
              [
                -112.4931759573715,
                78.49143611019556
              ],
              [
                -111.38394730651744,
                78.91601519989175
              ],
              [
                -109.51842639302438,
                78.51648281602648
              ]
            ]
          ]
        ]
      }
    },
    {
      "type": "Feature",
      "properties": {
        "Postal": "NU",
        "adm1_code": "CAN-634",
        "iso_3166_2": "CA-NU",
        "name": "Nunavut",
        "abbrev": "Nun.",
        "adm0_a3": "CAN",
        "admin": "Canada",
        "centroid": [
          -96.52652010751981,
          65.4732420958146
        ]
      },
      "geometry": {
        "type": "MultiPolygon",
        "coordinates": [
          [
            [
              [
                -79.95580218966809,
                62.55254228829493
              ],
              [
                -79.2163164215851,
                61.65331099284018
              ],
              [
                -80.62806197825701,
                61.94035181688821
              ],
              [
                -79.95580218966809,
                62.55254228829493
              ]
            ]
          ],
          [
            [
              [
                -81.63645166050519,
                62.67450654169084
              ],
              [
                -82.91374525945935,
                61.98128740153157
              ],
              [
                -84.19103885714307,
                62.51185244804224
              ],
              [
                -82.77929330174153,
                62.95847587692697
              ],
              [
                -81.63645166050519,
                62.67450654169084
              ]
            ]
          ],
          [
            [
              [
                -85.67001039203869,
                65.67240380562771
              ],
              [
                -80.0230281678918,
                63.845359841200384
              ],
              [
                -81.03141785141038,
                63.281960264959515
              ],
              [
                -83.18264917489489,
                63.925565362195464
              ],
              [
                -85.26665451888533,
                62.99897278035901
              ],
              [
                -87.01452996921651,
                63.5640891200323
              ],
              [
                -85.67001039203869,
                65.67240380562771
              ]
            ]
          ],
          [
            [
              [
                -75.52448974983326,
                67.17001156333104
              ],
              [
                -77.20513922194074,
                67.121685447535
              ],
              [
                -76.61691190613146,
                68.3693878752423
              ],
              [
                -74.93626243529437,
                67.98742139057069
              ],
              [
                -75.52448974983326,
                67.17001156333104
              ]
            ]
          ],
          [
            [
              [
                -95.48500330670723,
                69.21623482525978
              ],
              [
                -96.29171505301392,
                68.64840218532005
              ],
              [
                -99.6530139959585,
                69.21623482525978
              ],
              [
                -98.44294637649845,
                70.19134839462286
              ],
              [
                -95.48500330670723,
                69.21623482525978
              ]
            ]
          ],
          [
            [
              [
                -90.6885526563204,
                69.56921631315028
              ],
              [
                -90.43387657443205,
                68.57746378330778
              ],
              [
                -88.97386945701925,
                69.37317993946048
              ],
              [
                -87.203879890489,
                67.28738962475934
              ],
              [
                -85.39569812036696,
                69.91092990888296
              ],
              [
                -81.15936968061757,
                69.40784496370925
              ],
              [
                -81.20408156686541,
                67.20557331417612
              ],
              [
                -85.77365600174808,
                66.6008102147573
              ],
              [
                -87.82801889497203,
                64.43208281176452
              ],
              [
                -91.38627613210572,
                63.670501654566515
              ],
              [
                -90.57956438579905,
                63.057491589185645
              ],
              [
                -93.37552443873835,
                62.13782186010837
              ],
              [
                -94.73050513691399,
                60.20798571808685
              ],
              [
                -101.9393382115374,
                60.20952647153262
              ],
              [
                -101.92407985724697,
                62.66978011407266
              ],
              [
                -101.92323530161036,
                62.80412343429564
              ],
              [
                -101.96525153863536,
                63.41073764666174
              ],
              [
                -102.01387973071073,
                64.20774566718383
              ],
              [
                -102.61812491903578,
                64.2681346765639
              ],
              [
                -108.04465182836117,
                64.80867865337113
              ],
              [
                -111.25745182285551,
                65.12719343679682
              ],
              [
                -114.322426866958,
                66.052393445768
              ],
              [
                -120.82538926386782,
                67.98360641996223
              ],
              [
                -120.6684934640171,
                69.63516120200198
              ],
              [
                -115.13882826275278,
                68.87004129245804
              ],
              [
                -114.22129338690345,
                67.80817070479523
              ],
              [
                -108.54880786545745,
                67.5728445434903
              ],
              [
                -106.81994016882328,
                68.82009254580372
              ],
              [
                -101.7753902088734,
                67.70826011238182
              ],
              [
                -97.3671567308831,
                68.52416735744282
              ],
              [
                -96.08726891348363,
                67.49192561225661
              ],
              [
                -94.06453896031209,
                68.83066106373445
              ],
              [
                -96.38711083202128,
                70.12610880812409
              ],
              [
                -96.44063910213268,
                71.29289445447515
              ],
              [
                -93.71984640900615,
                71.92691686095533
              ],
              [
                -90.6885526563204,
                69.56921631315028
              ]
            ]
          ],
          [
            [
              [
                -105.28318972427903,
                72.56982351676574
              ],
              [
                -104.47647797797235,
                70.92435471355651
              ],
              [
                -100.94711408819816,
                70.11674962529771
              ],
              [
                -102.6109570657497,
                68.7622778305419
              ],
              [
                -106.6445157972832,
                69.1596253191407
              ],
              [
                -113.04779028279863,
                68.44874740638473
              ],
              [
                -114.00576048137899,
                69.1596253191407
              ],
              [
                -116.27051967722132,
                69.227112010922
              ],
              [
                -117.03092953066437,
                70.0327444660827
              ],
              [
                -109.9297387402336,
                70.03275754035994
              ],
              [
                -109.87136278250998,
                72.94886259365673
              ],
              [
                -108.0562613526847,
                71.61412129447109
              ],
              [
                -107.65290547953138,
                73.29917556842753
              ],
              [
                -105.28318972427903,
                72.56982351676574
              ]
            ]
          ],
          [
            [
              [
                -104.57731694657829,
                73.56756740123768
              ],
              [
                -105.43444817782319,
                72.81370353293407
              ],
              [
                -106.99745218549839,
                73.59435503336229
              ],
              [
                -104.57731694657829,
                73.56756740123768
              ]
            ]
          ],
          [
            [
              [
                -96.76229690439098,
                71.47664397140797
              ],
              [
                -99.13201265964327,
                71.17335657131805
              ],
              [
                -102.71179603308522,
                72.65120173343385
              ],
              [
                -100.34208027910334,
                72.65120173343385
              ],
              [
                -101.80424531944304,
                73.59435503336229
              ],
              [
                -97.0143943252706,
                73.67466174850874
              ],
              [
                -98.12362297612474,
                72.94886259365673
              ],
              [
                -96.30852154756985,
                72.51552418310176
              ],
              [
                -96.76229690439098,
                71.47664397140797
              ]
            ]
          ],
          [
            [
              [
                -76.1967495384222,
                72.95486420000037
              ],
              [
                -79.47401600731672,
                72.7746137427626
              ],
              [
                -81.15466547942422,
                73.49310815753897
              ],
              [
                -78.12949643013891,
                73.84985373417399
              ],
              [
                -76.1967495384222,
                72.95486420000037
              ]
            ]
          ],
          [
            [
              [
                -82.24708763572238,
                73.8676473592826
              ],
              [
                -80.53282517450306,
                72.09493958504527
              ],
              [
                -77.60849509509409,
                72.72045695506282
              ],
              [
                -66.5330150772977,
                69.97357794525465
              ],
              [
                -68.80189186394412,
                68.62624173217023
              ],
              [
                -61.82719655717532,
                66.6563773206525
              ],
              [
                -63.92800839699212,
                64.88918670177081
              ],
              [
                -68.2136645494052,
                66.31551545978681
              ],
              [
                -64.43220323748098,
                62.833500043376695
              ],
              [
                -68.88592433799414,
                63.691436899714176
              ],
              [
                -65.8607552887088,
                61.81402321575762
              ],
              [
                -70.81867122971087,
                62.660962755240796
              ],
              [
                -73.84384027772577,
                64.67077674773941
              ],
              [
                -78.71772374594822,
                64.59122397354858
              ],
              [
                -74.01190522582579,
                65.92433036045469
              ],
              [
                -72.07915833283866,
                67.26658264738603
              ],
              [
                -78.29756137823895,
                70.57878189804158
              ],
              [
                -79.55804848136673,
                69.50497020118821
              ],
              [
                -88.96968552161155,
                70.45810091163146
              ],
              [
                -90.23017262473934,
                72.92785331115584
              ],
              [
                -85.02015926412807,
                73.84985373417399
              ],
              [
                -86.61677626218554,
                72.81971560195935
              ],
              [
                -85.2722566850077,
                71.2715148802483
              ],
              [
                -84.85209431602806,
                73.26929634756185
              ],
              [
                -82.24708763572238,
                73.8676473592826
              ]
            ]
          ],
          [
            [
              [
                -90.3982375728394,
                73.8676473592826
              ],
              [
                -94.230118367161,
                72.01298148334541
              ],
              [
                -95.44018598662102,
                72.03120176333996
              ],
              [
                -96.21328474381588,
                73.54672609975536
              ],
              [
                -93.92760146261358,
                74.25805743510674
              ],
              [
                -90.3982375728394,
                73.8676473592826
              ]
            ]
          ],
          [
            [
              [
                -94.67829156040054,
                75.69851635946242
              ],
              [
                -94.07325775003531,
                74.5436721184905
              ],
              [
                -97.03120081982657,
                74.93061024735741
              ],
              [
                -94.67829156040054,
                75.69851635946242
              ]
            ]
          ],
          [
            [
              [
                -108.61087567811178,
                76.69010863515169
              ],
              [
                -107.80416393180504,
                75.81128472602173
              ],
              [
                -105.63612611376463,
                75.99308458229913
              ],
              [
                -106.08990147058573,
                75.05330880181286
              ],
              [
                -109.99823707311252,
                74.70886908762142
              ],
              [
                -109.93335225916401,
                75.6203117933977
              ],
              [
                -109.21590948847697,
                75.49857984533566
              ],
              [
                -110.57723556021075,
                76.43272857584525
              ],
              [
                -108.61087567811178,
                76.69010863515169
              ]
            ]
          ],
          [
            [
              [
                -98.44294637649845,
                76.7671448398166
              ],
              [
                -97.90513854562731,
                75.07082071381247
              ],
              [
                -100.5269517204889,
                74.86040624247883
              ],
              [
                -101.06475955136001,
                75.59426917592586
              ],
              [
                -102.34205315031414,
                75.52468921843607
              ],
              [
                -102.6781830439734,
                76.28647448569316
              ],
              [
                -98.44294637649845,
                76.7671448398166
              ]
            ]
          ],
          [
            [
              [
                -80.64531664666173,
                75.7114211777106
              ],
              [
                -79.8890243840228,
                74.44209361814107
              ],
              [
                -92.24179799950286,
                74.66248666050282
              ],
              [
                -93.16615520897143,
                76.05778894044848
              ],
              [
                -97.19971394050492,
                76.57428615092603
              ],
              [
                -97.03164899367529,
                77.29974778762788
              ],
              [
                -90.64518100144542,
                76.70283952878273
              ],
              [
                -90.98131089510463,
                75.92809231661259
              ],
              [
                -80.64531664666173,
                75.7114211777106
              ]
            ]
          ],
          [
            [
              [
                -93.94440795716949,
                77.84016442653017
              ],
              [
                -93.64861365019036,
                77.4886990477164
              ],
              [
                -96.31076241300246,
                77.51579649065697
              ],
              [
                -96.49899515380737,
                77.82667859985865
              ],
              [
                -93.94440795716949,
                77.84016442653017
              ]
            ]
          ],
          [
            [
              [
                -95.35055134898944,
                78.52482973065486
              ],
              [
                -97.23287875703838,
                77.78648688234767
              ],
              [
                -98.51017235472216,
                78.89111132848116
              ],
              [
                -95.35055134898944,
                78.52482973065486
              ]
            ]
          ],
          [
            [
              [
                -100.79585563592445,
                78.79140672776701
              ],
              [
                -99.51856203824076,
                77.78648688234767
              ],
              [
                -103.08153891712676,
                78.35770250392473
              ],
              [
                -105.03109230466978,
                78.42460114356024
              ],
              [
                -105.43444817782319,
                79.35451723130933
              ],
              [
                -100.79585563592445,
                78.79140672776701
              ]
            ]
          ],
          [
            [
              [
                -89.38469389831761,
                78.2277932687943
              ],
              [
                -92.91405778809181,
                78.18587196964585
              ],
              [
                -96.2753567310364,
                79.92523485386477
              ],
              [
                -94.76277220702892,
                81.22145731864403
              ],
              [
                -89.04856400338794,
                80.49539187924375
              ],
              [
                -86.10742742815263,
                79.26775425108522
              ],
              [
                -89.38469389831761,
                78.2277932687943
              ]
            ]
          ],
          [
            [
              [
                -76.10756307336896,
                79.3090311392637
              ],
              [
                -78.96466717455424,
                76.23036127726445
              ],
              [
                -89.38469389831761,
                76.53138435220266
              ],
              [
                -88.2082392679694,
                77.93382014683037
              ],
              [
                -84.84694032502485,
                77.4270140370606
              ],
              [
                -87.62001195216008,
                78.43702612339396
              ],
              [
                -84.84694032502485,
                79.1437756743181
              ],
              [
                -87.19984958445083,
                80.12941109955325
              ],
              [
                -81.56967385485987,
                80.49539187924375
              ],
              [
                -87.87210937303972,
                80.53593475894924
              ],
              [
                -91.73760315774364,
                82.01904665091001
              ],
              [
                -76.44369296702818,
                83.23649330878274
              ],
              [
                -61.56994514529248,
                82.846250606474
              ],
              [
                -67.78834818942236,
                81.58155913876362
              ],
              [
                -65.51947140277595,
                81.50170467874253
              ],
              [
                -76.10756307336896,
                79.3090311392637
              ]
            ]
          ]
        ]
      }
    },
    {
      "type": "Feature",
      "properties": {
        "Postal": "ON",
        "adm1_code": "CAN-682",
        "iso_3166_2": "CA-ON",
        "name": "Ontario",
        "abbrev": "Ont.",
        "adm0_a3": "CAN",
        "admin": "Canada",
        "centroid": [
          -87.22631004255446,
          52.16668054729842
        ]
      },
      "geometry": {
        "type": "MultiPolygon",
        "coordinates": [
          [
            [
              [
                -81.7762200730245,
                45.92216031752785
              ],
              [
                -81.81655566097501,
                45.510753673265434
              ],
              [
                -83.1879656296964,
                45.907994624553396
              ],
              [
                -81.7762200730245,
                45.92216031752785
              ]
            ]
          ],
          [
            [
              [
                -79.95672654735782,
                51.10145673458915
              ],
              [
                -79.58533242549582,
                47.152519874551324
              ],
              [
                -76.15680750305718,
                45.433910790918944
              ],
              [
                -74.17364112640227,
                45.552325163270396
              ],
              [
                -75.08284307913537,
                45.01075488673457
              ],
              [
                -76.24800934726238,
                44.32306807073853
              ],
              [
                -79.47485633248915,
                43.70072696557837
              ],
              [
                -79.79930571260354,
                43.2156765787391
              ],
              [
                -78.97578747174093,
                43.323949868015006
              ],
              [
                -78.83620953301211,
                42.8345335370181
              ],
              [
                -81.35718374053815,
                42.59300496438514
              ],
              [
                -82.56725135999817,
                41.93889543448985
              ],
              [
                -83.27312413769891,
                42.06024441190709
              ],
              [
                -82.52019317447935,
                42.95032570284798
              ],
              [
                -81.65970064508554,
                43.354873045548885
              ],
              [
                -81.60591986199843,
                45.341558578094975
              ],
              [
                -80.07316754401567,
                44.428116636773304
              ],
              [
                -79.69670206240589,
                44.79040640577204
              ],
              [
                -80.79920811569173,
                45.9471662254476
              ],
              [
                -84.02605510091851,
                46.32430011149278
              ],
              [
                -84.40252058252828,
                46.39959992310852
              ],
              [
                -84.92016062069459,
                47.88270104956856
              ],
              [
                -85.96216329205456,
                47.905959348800195
              ],
              [
                -86.3991321555902,
                48.7404592602254
              ],
              [
                -88.4937255916717,
                48.899723779792616
              ],
              [
                -89.52228306789515,
                48.01051169291346
              ],
              [
                -93.07588871912188,
                48.60358926428448
              ],
              [
                -94.38990416223368,
                48.822193221810714
              ],
              [
                -95.40749735265805,
                48.99122379233629
              ],
              [
                -95.29972723349357,
                50.15747297199276
              ],
              [
                -95.04730756304083,
                52.84586383959866
              ],
              [
                -88.92776998233764,
                56.864338082762515
              ],
              [
                -82.27602281767193,
                55.17702109002228
              ],
              [
                -81.87266694451858,
                52.42005241727265
              ],
              [
                -79.95672654735782,
                51.10145673458915
              ]
            ]
          ]
        ]
      }
    },
    {
      "type": "Feature",
      "properties": {
        "Postal": "QC",
        "adm1_code": "CAN-683",
        "iso_3166_2": "CA-QC",
        "name": "Québec",
        "abbrev": "Que.",
        "adm0_a3": "CAN",
        "admin": "Canada",
        "centroid": [
          -71.79091962883183,
          53.05652582606233
        ]
      },
      "geometry": {
        "type": "MultiPolygon",
        "coordinates": [
          [
            [
              [
                -61.58518303328331,
                49.39952597569769
              ],
              [
                -62.139797358710375,
                49.054293130369665
              ],
              [
                -64.358254661689,
                49.67502539485814
              ],
              [
                -64.25741569308303,
                50.08712706902149
              ],
              [
                -61.58518303328331,
                49.39952597569769
              ]
            ]
          ],
          [
            [
              [
                -69.41905436043258,
                59.074975365003695
              ],
              [
                -66.99891912151249,
                58.185816968063854
              ],
              [
                -64.47794491398646,
                60.39417999705701
              ],
              [
                -63.49143308604203,
                54.65700538427628
              ],
              [
                -67.65104052865051,
                54.79427633248862
              ],
              [
                -66.51660213532733,
                52.044738573661604
              ],
              [
                -64.62587147936522,
                51.622365259498835
              ],
              [
                -63.91159545375129,
                53.1914881999815
              ],
              [
                -63.65949803287165,
                51.96038498096557
              ],
              [
                -57.14698133083716,
                51.988509575837256
              ],
              [
                -57.14698133083716,
                51.551352229953736
              ],
              [
                -60.293127730179236,
                50.17998340959886
              ],
              [
                -66.94849963784469,
                50.17998340959886
              ],
              [
                -70.88121940077225,
                46.81215002985006
              ],
              [
                -68.30982570957846,
                48.59398678396018
              ],
              [
                -65.13339820801947,
                49.25151863565145
              ],
              [
                -64.02416955716534,
                48.73269967978588
              ],
              [
                -64.931720272078,
                48.1421225082599
              ],
              [
                -66.55049523198305,
                48.019977459310276
              ],
              [
                -68.11013794150934,
                47.96419987531906
              ],
              [
                -68.80637694233884,
                47.320606366659284
              ],
              [
                -69.3686348767648,
                47.40881569769536
              ],
              [
                -71.07716532074978,
                45.44485836213588
              ],
              [
                -71.48625321113751,
                44.9703465742605
              ],
              [
                -73.37837475224639,
                44.99160635952412
              ],
              [
                -75.08284307913537,
                45.01075488673457
              ],
              [
                -74.17364112640227,
                45.552325163270396
              ],
              [
                -76.15680750305718,
                45.433910790918944
              ],
              [
                -79.58533242549582,
                47.152519874551324
              ],
              [
                -79.95672654735782,
                51.10145673458915
              ],
              [
                -78.83553867413599,
                51.463312391913185
              ],
              [
                -78.4945615070181,
                52.55445941952214
              ],
              [
                -79.90630706241963,
                54.61782745150969
              ],
              [
                -77.43575233983177,
                55.209826522435186
              ],
              [
                -76.52820162491913,
                56.93444214962068
              ],
              [
                -78.29288356980625,
                58.72658722777625
              ],
              [
                -77.63743027577326,
                62.615102570871116
              ],
              [
                -69.77199074991816,
                61.10921016964088
              ],
              [
                -69.41905436043258,
                59.074975365003695
              ]
            ]
          ]
        ]
      }
    },
    {
      "type": "Feature",
      "properties": {
        "Postal": "SK",
        "adm1_code": "CAN-631",
        "iso_3166_2": "CA-SK",
        "name": "Saskatchewan",
        "abbrev": "Sask.",
        "adm0_a3": "CAN",
        "admin": "Canada",
        "centroid": [
          -105.84590127972137,
          54.34742093461365
        ]
      },
      "geometry": {
        "type": "MultiPolygon",
        "coordinates": [
          [
            [
              [
                -101.34816784311725,
                48.99122379320779
              ],
              [
                -104.06617949897652,
                48.99122379320779
              ],
              [
                -109.80754889214296,
                48.9912237940793
              ],
              [
                -109.8373214328584,
                50.271247385299716
              ],
              [
                -109.91485924878182,
                53.54230268522003
              ],
              [
                -110.04250649600307,
                58.72743392005624
              ],
              [
                -110.0506708294055,
                59.0505431487027
              ],
              [
                -110.05824574100218,
                59.349405653673166
              ],
              [
                -110.0802172880182,
                60.21126640315447
              ],
              [
                -101.9393382115374,
                60.209526471532605
              ],
              [
                -101.9755553930808,
                58.164629206931735
              ],
              [
                -101.98769845770055,
                57.46973168907023
              ],
              [
                -101.99120055916315,
                57.26845642517458
              ],
              [
                -101.9991352558566,
                56.810997135087796
              ],
              [
                -102.02042763170613,
                55.57362801917296
              ],
              [
                -101.84420014275166,
                53.884104337067264
              ],
              [
                -101.34816784311725,
                48.99122379320779
              ]
            ]
          ]
        ]
      }
    },
    {
      "type": "Feature",
      "properties": {
        "Postal": "YT",
        "adm1_code": "CAN-636",
        "iso_3166_2": "CA-YT",
        "name": "Yukon",
        "abbrev": "Yuk.",
        "adm0_a3": "CAN",
        "admin": "Canada",
        "centroid": [
          -135.3123798639573,
          63.61790709843237
        ]
      },
      "geometry": {
        "type": "MultiPolygon",
        "coordinates": [
          [
            [
              [
                -136.46527467881165,
                68.93758750534639
              ],
              [
                -136.56803286418094,
                67.0378696324276
              ],
              [
                -133.92100994557987,
                67.0378696324276
              ],
              [
                -128.96309400584823,
                62.19082098876234
              ],
              [
                -124.16876120077478,
                60.214277443305534
              ],
              [
                -128.1673712891095,
                60.21513202004469
              ],
              [
                -132.6097767987113,
                60.216081435109125
              ],
              [
                -137.71753386580406,
                60.21717303641582
              ],
              [
                -141.0466835970785,
                60.21788451659457
              ],
              [
                -141.01345146407806,
                64.1267002819829
              ],
              [
                -140.985281007763,
                67.31467377823539
              ],
              [
                -140.96341958112657,
                69.71012084262416
              ],
              [
                -140.96337800442967,
                69.71461171069006
              ],
              [
                -136.46527467881165,
                68.93758750534639
              ]
            ]
          ]
        ]
      }
    }
  ]
}